GEOSCAN-3 (RS92S3)
1 64893U 25155T   26199.59510426  .00010184  00000-0  28897-3 0  9998
2 64893  97.4559 169.8650 0008474  78.4287 281.7908 15.36381443 85674
INNOSAT3 (RS92S0)
1 64894U 25155U   26199.59588535  .00023972  00000-0  49215-3 0  9991
2 64894  97.4503 171.8991 0008078  82.6738 277.5429 15.45985206 85817
KNACKSAT-2
1 67683U 98067XZ  26199.07280907  .00034011  00000-0  37689-3 0  9995
2 67683  51.6275 138.8026 0007917 337.9309  22.1343 15.62605935 25109
