OBJECT_NAME,OBJECT_ID,EPOCH,MEAN_MOTION,ECCENTRICITY,INCLINATION,RA_OF_ASC_NODE,ARG_OF_PERICENTER,MEAN_ANOMALY,EPHEMERIS_TYPE,CLASSIFICATION_TYPE,NORAD_CAT_ID,ELEMENT_SET_NO,REV_AT_EPOCH,BSTAR,MEAN_MOTION_DOT,MEAN_MOTION_DDOT
GEOSCAN 3 (RS92S3),2025-155T,2026-07-18T14:16:57.008064,15.36381443,.00084738,97.4559,169.8650,78.4287,281.7908,0,U,64893,999,8567,.28896561E-3,.10184E-3,0
INNOSAT 3 (RS92S0),2025-155U,2026-07-18T14:18:04.494240,15.45985206,.0008078,97.4503,171.8991,82.6738,277.5429,0,U,64894,999,8581,.49214791E-3,.23972E-3,0
KNACKSAT-2,1998-067XZ,2026-07-18T01:44:50.703648,15.62605935,.00079174,51.6275,138.8026,337.9309,22.1343,0,U,67683,999,2510,.3768944E-3,.34011E-3,0
